NORAD_CAT_ID,OBJECT_NAME,OBJECT_TYPE,EPOCH,MEAN_MOTION,ECCENTRICITY,INCLINATION,RA_OF_ASC_NODE,ARG_OF_PERICENTER,MEAN_ANOMALY,BSTAR,MEAN_MOTION_DOT,MEAN_MOTION_DDOT,TLE_LINE0,TLE_LINE1,TLE_LINE2,SEMIMAJOR_AXIS,PERIOD,APOGEE,PERIGEE,DECAYED
52469.0,STARLINK-3828,PAYLOAD,2022-09-06 12:00:00,15.08850742,0.0001431,53.216,46.1129,66.0339,283.2463,-0.0026034,-0.00041495,0.0,0 STARLINK-3828,1 52469U 22049R   22249.50001157 -.00041495  00000-0 -26034-2 0  9993,2 52469  53.2160  46.1129 0001431  66.0339 283.2463 15.08850742 19147,6917.848000000001,95.437,540.702,538.7230000000002,0.0
52469.0,STARLINK-3828,PAYLOAD,2022-09-06 14:00:01,15.08856805,0.0001468,53.2159,45.7394,62.8765,19.3008,-0.0044836999999999,-0.00070976,0.0,0 STARLINK-3828,1 52469U 22049R   22249.58334491 -.00070976  00000-0 -44837-2 0  9998,2 52469  53.2159  45.7394 0001468  62.8765  19.3008 15.08856805  1309,6917.829000000002,95.436,540.71,538.678,0.0
52469.0,STARLINK-3828,PAYLOAD,2022-09-06 22:00:00,15.087946100000002,0.000149,53.2159,44.2439,53.2512,40.5165,0.0029335,0.0004665,0.0,0 STARLINK-3828,1 52469U 22049R   22249.91667824  .00046650  00000-0  29335-2 0  9990,2 52469  53.2159  44.2439 0001490  53.2512  40.5165 15.08794610  1307,6918.019,95.44,540.915,538.8530000000002,0.0
52469.0,STARLINK-3828,PAYLOAD,2022-09-07 04:00:00,15.08821279,0.00014,53.2162,43.1201,59.1165,313.3204,-0.00021096,-3.642e-05,0.0,0 STARLINK-3828,1 52469U 22049R   22250.16667824 -.00003642  00000-0 -21096-3 0  9992,2 52469  53.2162  43.1201 0001400  59.1165 313.3204 15.08821279 19245,6917.938,95.439,540.771,538.8340000000002,0.0
52469.0,STARLINK-3828,PAYLOAD,2022-09-07 14:00:01,15.08845256,0.0001473,53.2164,41.25,59.8888,57.0107,-0.0014321,-0.00023011,0.0,0 STARLINK-3828,1 52469U 22049R   22250.58334491 -.00023011  00000-0 -14321-2 0  9993,2 52469  53.2164  41.2500 0001473  59.8888  57.0107 15.08845256  1300,6917.864000000001,95.437,540.748,538.71,0.0
52469.0,STARLINK-3828,PAYLOAD,2022-09-07 22:00:00,15.08823787,0.0001549,53.2163,39.7544,52.3485,76.1443,0.0025239999999999,0.00040092,0.0,0 STARLINK-3828,1 52469U 22049R   22250.91667824  .00040092  00000-0  25240-2 0  9997,2 52469  53.2163  39.7544 0001549  52.3485  76.1443 15.08823787  1304,6917.93,95.439,540.867,538.7230000000002,0.0
52469.0,STARLINK-3828,PAYLOAD,2022-09-08 14:00:01,15.08873926,0.0001574,53.217,36.7605,59.784,91.9091,-0.0041213,-0.00065344,0.0,0 STARLINK-3828,1 52469U 22049R   22251.58334491 -.00065344  00000-0 -41213-2 0  9999,2 52469  53.2170  36.7605 0001574  59.7840  91.9091 15.08873926  1305,6917.776999999999,95.435,540.731,538.553,0.0
52469.0,STARLINK-3828,PAYLOAD,2022-09-08 22:00:00,15.088405599999998,0.0001710999999999,53.2168,35.2648,54.9135,108.3904,0.00041505,6.324e-05,0.0,0 STARLINK-3828,1 52469U 22049R   22251.91667824  .00006324  00000-0  41505-3 0  9991,2 52469  53.2168  35.2648 0001711  54.9135 108.3904 15.08840560  1304,6917.879,95.438,540.927,538.56,0.0
52469.0,STARLINK-3828,PAYLOAD,2022-09-09 14:00:01,15.08843965,0.0001706999999999,53.2174,32.2713,61.5503,124.9342,-0.00097814,-0.00015823,0.0,0 STARLINK-3828,1 52469U 22049R   22252.58334491 -.00015823  00000-0 -97814-3 0  9996,2 52469  53.2174  32.2713 0001707  61.5503 124.9342 15.08843965  1301,6917.868,95.437,540.914,538.552,0.0
52469.0,STARLINK-3828,PAYLOAD,2022-09-09 22:00:00,15.08848305,0.0001719,53.2171,30.7754,56.0727,142.0016,-0.00085759,-0.00013914,0.0,0 STARLINK-3828,1 52469U 22049R   22252.91667824 -.00013914  00000-0 -85759-3 0  9996,2 52469  53.2171  30.7754 0001719  56.0727 142.0016 15.08848305 19655,6917.855,95.437,540.909,538.531,0.0
52469.0,STARLINK-3828,PAYLOAD,2022-09-10 14:00:01,15.088447199999996,0.0001575999999999,53.2175,27.7825,59.0604,162.2014,-0.00091729,-0.00014859,0.0,0 STARLINK-3828,1 52469U 22049R   22253.58334491 -.00014859  00000-0 -91729-3 0  9994,2 52469  53.2175  27.7825 0001576  59.0604 162.2014 15.08844720  1304,6917.866,95.437,540.821,538.641,0.0
52469.0,STARLINK-3828,PAYLOAD,2022-09-10 22:00:00,15.0885167,0.0001561999999999,53.2171,26.2864,53.5683,179.2868,-0.0020705,-0.000331,0.0,0 STARLINK-3828,1 52469U 22049R   22253.91667824 -.00033100  00000-0 -20705-2 0  9995,2 52469  53.2171  26.2864 0001562  53.5683 179.2868 15.08851670  1305,6917.845,95.437,540.79,538.629,0.0
52469.0,STARLINK-3828,PAYLOAD,2022-09-11 14:00:01,15.08851003,0.0001509,53.2173,23.2937,57.1139,198.9269,-0.00071609,-0.0001167,0.0,0 STARLINK-3828,1 52469U 22049R   22254.58334491 -.00011670  00000-0 -71609-3 0  9998,2 52469  53.2173  23.2937 0001509  57.1139 198.9269 15.08851003 19911,6917.847,95.437,540.756,538.668,0.0
52469.0,STARLINK-3828,PAYLOAD,2022-09-11 22:00:00,15.08859152,0.0001584,53.2169,21.7975,53.6671,213.9745,-0.0023304,-0.00037205,0.0,0 STARLINK-3828,1 52469U 22049R   22254.91667824 -.00037205  00000-0 -23304-2 0  9994,2 52469  53.2169  21.7975 0001584  53.6671 213.9745 15.08859152  1300,6917.821999999999,95.436,540.783,538.591,0.0
52469.0,STARLINK-3828,PAYLOAD,2022-09-12 14:00:01,15.08841246,0.0001729,53.217,18.8049,58.9413,231.903,-0.0015675,-0.00025149,0.0,0 STARLINK-3828,1 52469U 22049R   22255.58334491 -.00025149  00000-0 -15675-2 0  9995,2 52469  53.2170  18.8049 0001729  58.9413 231.9030 15.08841246  1306,6917.877,95.437,540.938,538.545,0.0
52469.0,STARLINK-3828,PAYLOAD,2022-09-12 22:00:00,15.08852047,0.0001727,53.2168,17.3086,55.5505,246.878,-0.0007599999999999,-0.00012367,0.0,0 STARLINK-3828,1 52469U 22049R   22255.91667824 -.00012367  00000-0 -76000-3 0  9999,2 52469  53.2168  17.3086 0001727  55.5505 246.8780 15.08852047 20119,6917.844,95.437,540.903,538.514,0.0
52469.0,STARLINK-3828,PAYLOAD,2022-09-13 14:00:01,15.08852536,0.0001699,53.217,14.3161,54.9946,270.6319,-0.0016365,-0.00026248,0.0,0 STARLINK-3828,1 52469U 22049R   22256.58334491 -.00026248  00000-0 -16365-2 0  9994,2 52469  53.2170  14.3161 0001699  54.9946 270.6319 15.08852536  1309,6917.842,95.437,540.882,538.5319999999998,0.0
52469.0,STARLINK-3828,PAYLOAD,2022-09-13 22:00:00,15.08852329,0.0001681,53.2169,12.8196,51.1693,286.0458,-0.0043703999999999,-0.00069199,0.0,0 STARLINK-3828,1 52469U 22049R   22256.91667824 -.00069199  00000-0 -43704-2 0  9999,2 52469  53.2169  12.8196 0001681  51.1693 286.0458 15.08852329  1302,6917.843000000003,95.437,540.871,538.545,0.0
52469.0,STARLINK-3828,PAYLOAD,2022-09-14 06:00:00,15.08785895,0.0001638,53.2171,11.3218,60.0376,288.7692,0.0035991,0.00057373,0.0,0 STARLINK-3828,1 52469U 22049R   22257.25001157  .00057373  00000-0  35991-2 0  9996,2 52469  53.2171  11.3218 0001638  60.0376 288.7692 15.08785895 20317,6918.045999999999,95.441,541.044,538.778,0.0
52469.0,STARLINK-3828,PAYLOAD,2022-09-14 14:00:01,15.08823844,0.0001807,53.2172,9.8272,54.4784,305.8831,-9.2089e-05,-1.753e-05,0.0,0 STARLINK-3828,1 52469U 22049R   22257.58334491 -.00001753  00000-0 -92089-4 0  9998,2 52469  53.2172   9.8272 0001807  54.4784 305.8831 15.08823844  1310,6917.93,95.439,541.045,538.545,0.0
52469.0,STARLINK-3828,PAYLOAD,2022-09-14 22:00:00,15.08855747,0.0001758,53.2172,8.3306,50.7451,321.1842,-0.0025577,-0.00040782,0.0,0 STARLINK-3828,1 52469U 22049R   22257.91667824 -.00040782  00000-0 -25577-2 0  9995,2 52469  53.2172   8.3306 0001758  50.7451 321.1842 15.08855747 20419,6917.831999999999,95.437,540.913,538.481,0.0
52469.0,STARLINK-3828,PAYLOAD,2022-09-15 14:00:01,15.0884019,0.0001773,53.2175,5.3383,50.8933,344.2242,0.00017042,2.425e-05,0.0,0 STARLINK-3828,1 52469U 22049R   22258.58334491  .00002425  00000-0  17042-3 0  9999,2 52469  53.2175   5.3383 0001773  50.8933 344.2242 15.08840190  1300,6917.88,95.438,540.971,538.518,0.0
52469.0,STARLINK-3828,PAYLOAD,2022-09-15 17:01:30,15.0883453,0.0001662,53.2193,4.7715,59.3718,300.7438,5.855499999999999e-07,-2.79e-06,0.0,0 STARLINK-3828,1 52469U 22049R   22258.70938117 -.00000279  00000-0  58555-6 0  9991,2 52469  53.2193   4.7715 0001662  59.3718 300.7438 15.08834530 20535,6917.897,95.438,540.9119999999998,538.612,0.0
52469.0,STARLINK-3828,PAYLOAD,2022-09-16 13:41:31,15.08829758,0.0001656,53.2178,0.9041,50.5414,309.5724,0.00015162,2.125e-05,0.0,0 STARLINK-3828,1 52469U 22049R   22259.57050161  .00002125  00000-0  15162-3 0  9996,2 52469  53.2178   0.9041 0001656  50.5414 309.5724 15.08829758 20505,6917.9119999999975,95.438,540.922,538.631,0.0
52469.0,STARLINK-3828,PAYLOAD,2022-09-16 16:52:17,15.08827273,0.0001571999999999,53.2175,0.3093,51.7914,308.322,0.00012619,1.7199999999999998e-05,0.0,0 STARLINK-3828,1 52469U 22049R   22259.70298458  .00001720  00000-0  12619-3 0  9998,2 52469  53.2175   0.3093 0001572  51.7914 308.3220 15.08827273 20528,6917.919,95.438,540.872,538.697,0.0
52469.0,STARLINK-3828,PAYLOAD,2022-09-16 23:13:51,15.0882396,0.000169,53.2183,359.1208,46.0753,314.0379,-8.7965e-06,-4.28e-06,0.0,0 STARLINK-3828,1 52469U 22049R   22259.96795309 -.00000428  00000-0 -87965-5 0  9997,2 52469  53.2183 359.1208 0001690  46.0753 314.0379 15.08823960 20729,6917.929,95.439,540.964,538.625,0.0
52469.0,STARLINK-3828,PAYLOAD,2022-09-17 11:56:55,15.08832616,0.0001593,53.218,356.7423,44.2367,315.8752,-1.613e-06,-3.14e-06,0.0,0 STARLINK-3828,1 52469U 22049R   22260.49787029 -.00000314  00000-0 -16130-5 0  9997,2 52469  53.2180 356.7423 0001593  44.2367 315.8752 15.08832616 20644,6917.903,95.438,540.87,538.6659999999998,0.0
52469.0,STARLINK-3828,PAYLOAD,2022-09-17 15:07:42,15.0883505,0.0001578,53.2183,356.148,46.1149,313.9973,2.242800000000001e-05,6.9e-07,0.0,0 STARLINK-3828,1 52469U 22049R   22260.63034850  .00000069  00000-0  22428-4 0  9991,2 52469  53.2183 356.1480 0001578  46.1149 313.9973 15.08835050 20667,6917.896,95.438,540.852,538.669,0.0
52469.0,STARLINK-3828,PAYLOAD,2022-09-17 23:04:37,15.08840712,0.0001576999999999,53.2184,354.6615,46.2492,313.863,6.3328e-05,7.200000000000001e-06,0.0,0 STARLINK-3828,1 52469U 22049R   22260.96154407  .00000720  00000-0  63328-4 0  9996,2 52469  53.2184 354.6615 0001577  46.2492 313.8630 15.08840712 20875,6917.878000000002,95.438,540.8340000000002,538.6519999999998,0.0
